ONEWEB-0495             
1 54115U 22138C   25221.45490129 -.00000007  00000+0 -50052-4 0  9992
2 54115  87.9239   6.9531 0002208  77.7200 282.4180 13.19724480135705
ONEWEB-0497             
1 54116U 22138D   25221.39172467 -.00000047  00000+0 -14921-3 0  9996
2 54116  87.9248   6.9377 0001867  92.3263 267.8084 13.19724206135689
ONEWEB-0499             
1 54117U 22138E   25221.37435931  .00000074  00000+0  15241-3 0  9997
2 54117  87.9245   6.9597 0002176  95.3559 264.7822 13.19726237135699
ONEWEB-0500             
1 54118U 22138F   25221.37749904  .00000078  00000+0  16244-3 0  9994
2 54118  87.9248   6.9438 0001770  95.2898 264.8436 13.19726649135702
ONEWEB-0501             
1 54119U 22138G   25221.33171422  .00000033  00000+0  49813-4 0  9995
2 54119  87.9248   6.9455 0002083  85.3512 274.7858 13.19725922135670
ONEWEB-0502             
1 54120U 22138H   25221.39330914  .00000037  00000+0  59527-4 0  9993
2 54120  87.9245   6.9168 0002094  90.7554 269.3819 13.19726435135709
ONEWEB-0503             
1 54121U 22138J   25221.45805667  .00000010  00000+0 -68921-5 0  9994
2 54121  87.9245   6.9086 0002098 101.0631 259.0738 13.19726698135702
ONEWEB-0504             
1 54122U 22138K   25221.44543129  .00000051  00000+0  94935-4 0  9993
2 54122  87.9248   6.9268 0002121  91.9297 268.2079 13.19726022135712
ONEWEB-0505             
1 54123U 22138L   25220.91154609  .00000012  00000+0 -20099-5 0  9995
2 54123  87.9246   7.0219 0002265  84.4637 275.6754 13.19723635135622
ONEWEB-0506             
1 54124U 22138M   25221.41699863  .00000089  00000+0  18980-3 0  9995
2 54124  87.9247   6.9186 0001981  91.3761 268.7598 13.19726833135682
ONEWEB-0507             
1 54125U 22138N   25221.43752424  .00000079  00000+0  16428-3 0  9995
2 54125  87.9239   6.9676 0001930  88.2304 271.9050 13.19725026135738
ONEWEB-0508             
1 54126U 22138P   25221.13110681  .00000084  00000+0  17838-3 0  9998
2 54126  87.9244   7.0117 0001977  84.1124 276.0234 13.19726302135674
ONEWEB-0509             
1 54127U 22138Q   25221.40909207  .00000038  00000+0  63436-4 0  9994
2 54127  87.9249   6.9177 0001913  92.1991 267.9361 13.19726750135683
ONEWEB-0510             
1 54128U 22138R   25221.61955757 -.00000030  00000+0 -10664-3 0  9997
2 54128  87.9302 336.5206 0001757 116.0612 244.0702 13.20773619138159
ONEWEB-0511             
1 54129U 22138S   25221.33012280  .00000037  00000+0  60635-4 0  9991
2 54129  87.9246   6.9388 0002114  99.6284 260.5088 13.19726662135707
ONEWEB-0512             
1 54130U 22138T   25221.39803927  .00000003  00000+0 -24987-4 0  9999
2 54130  87.9237   6.9690 0002186  87.8964 272.2419 13.19726558135687
ONEWEB-0513             
1 54131U 22138U   25221.45956080  .00003025  00000+0  74584-2 0  9998
2 54131  87.9253   6.9180 0002400  90.7449 269.3959 13.20292940135580
