[{"OBJECT_NAME":"ONEWEB-0495","OBJECT_ID":"2022-138C","EPOCH":"2025-08-09T10:55:03.471456","MEAN_MOTION":13.1972448,"ECCENTRICITY":0.0002208,"INCLINATION":87.9239,"RA_OF_ASC_NODE":6.9531,"ARG_OF_PERICENTER":77.72,"MEAN_ANOMALY":282.418,"EPHEMERIS_TYPE":0,"CLASSIFICATION_TYPE":"U","NORAD_CAT_ID":54115,"ELEMENT_SET_NO":999,"REV_AT_EPOCH":13570,"BSTAR":-5.0052e-5,"MEAN_MOTION_DOT":-7.0e-8,"MEAN_MOTION_DDOT":0},{"OBJECT_NAME":"ONEWEB-0497","OBJECT_ID":"2022-138D","EPOCH":"2025-08-09T09:24:05.011488","MEAN_MOTION":13.19724206,"ECCENTRICITY":0.0001867,"INCLINATION":87.9248,"RA_OF_ASC_NODE":6.9377,"ARG_OF_PERICENTER":92.3263,"MEAN_ANOMALY":267.8084,"EPHEMERIS_TYPE":0,"CLASSIFICATION_TYPE":"U","NORAD_CAT_ID":54116,"ELEMENT_SET_NO":999,"REV_AT_EPOCH":13568,"BSTAR":-0.00014921,"MEAN_MOTION_DOT":-4.7e-7,"MEAN_MOTION_DDOT":0},{"OBJECT_NAME":"ONEWEB-0499","OBJECT_ID":"2022-138E","EPOCH":"2025-08-09T08:59:04.644384","MEAN_MOTION":13.19726237,"ECCENTRICITY":0.0002176,"INCLINATION":87.9245,"RA_OF_ASC_NODE":6.9597,"ARG_OF_PERICENTER":95.3559,"MEAN_ANOMALY":264.7822,"EPHEMERIS_TYPE":0,"CLASSIFICATION_TYPE":"U","NORAD_CAT_ID":54117,"ELEMENT_SET_NO":999,"REV_AT_EPOCH":13569,"BSTAR":0.00015241,"MEAN_MOTION_DOT":7.4e-7,"MEAN_MOTION_DDOT":0},{"OBJECT_NAME":"ONEWEB-0500","OBJECT_ID":"2022-138F","EPOCH":"2025-08-09T09:03:35.917056","MEAN_MOTION":13.19726649,"ECCENTRICITY":0.000177,"INCLINATION":87.9248,"RA_OF_ASC_NODE":6.9438,"ARG_OF_PERICENTER":95.2898,"MEAN_ANOMALY":264.8436,"EPHEMERIS_TYPE":0,"CLASSIFICATION_TYPE":"U","NORAD_CAT_ID":54118,"ELEMENT_SET_NO":999,"REV_AT_EPOCH":13570,"BSTAR":0.00016244,"MEAN_MOTION_DOT":7.8e-7,"MEAN_MOTION_DDOT":0},{"OBJECT_NAME":"ONEWEB-0501","OBJECT_ID":"2022-138G","EPOCH":"2025-08-09T07:57:40.108608","MEAN_MOTION":13.19725922,"ECCENTRICITY":0.0002083,"INCLINATION":87.9248,"RA_OF_ASC_NODE":6.9455,"ARG_OF_PERICENTER":85.3512,"MEAN_ANOMALY":274.7858,"EPHEMERIS_TYPE":0,"CLASSIFICATION_TYPE":"U","NORAD_CAT_ID":54119,"ELEMENT_SET_NO":999,"REV_AT_EPOCH":13567,"BSTAR":4.9813e-5,"MEAN_MOTION_DOT":3.3e-7,"MEAN_MOTION_DDOT":0},{"OBJECT_NAME":"ONEWEB-0502","OBJECT_ID":"2022-138H","EPOCH":"2025-08-09T09:26:21.909696","MEAN_MOTION":13.19726435,"ECCENTRICITY":0.0002094,"INCLINATION":87.9245,"RA_OF_ASC_NODE":6.9168,"ARG_OF_PERICENTER":90.7554,"MEAN_ANOMALY":269.3819,"EPHEMERIS_TYPE":0,"CLASSIFICATION_TYPE":"U","NORAD_CAT_ID":54120,"ELEMENT_SET_NO":999,"REV_AT_EPOCH":13570,"BSTAR":5.9527e-5,"MEAN_MOTION_DOT":3.7e-7,"MEAN_MOTION_DDOT":0},{"OBJECT_NAME":"ONEWEB-0503","OBJECT_ID":"2022-138J","EPOCH":"2025-08-09T10:59:36.096288","MEAN_MOTION":13.19726698,"ECCENTRICITY":0.0002098,"INCLINATION":87.9245,"RA_OF_ASC_NODE":6.9086,"ARG_OF_PERICENTER":101.0631,"MEAN_ANOMALY":259.0738,"EPHEMERIS_TYPE":0,"CLASSIFICATION_TYPE":"U","NORAD_CAT_ID":54121,"ELEMENT_SET_NO":999,"REV_AT_EPOCH":13570,"BSTAR":-6.8921e-6,"MEAN_MOTION_DOT":1.0e-7,"MEAN_MOTION_DDOT":0},{"OBJECT_NAME":"ONEWEB-0504","OBJECT_ID":"2022-138K","EPOCH":"2025-08-09T10:41:25.263456","MEAN_MOTION":13.19726022,"ECCENTRICITY":0.0002121,"INCLINATION":87.9248,"RA_OF_ASC_NODE":6.9268,"ARG_OF_PERICENTER":91.9297,"MEAN_ANOMALY":268.2079,"EPHEMERIS_TYPE":0,"CLASSIFICATION_TYPE":"U","NORAD_CAT_ID":54122,"ELEMENT_SET_NO":999,"REV_AT_EPOCH":13571,"BSTAR":9.4935e-5,"MEAN_MOTION_DOT":5.1e-7,"MEAN_MOTION_DDOT":0},{"OBJECT_NAME":"ONEWEB-0505","OBJECT_ID":"2022-138L","EPOCH":"2025-08-08T21:52:37.582176","MEAN_MOTION":13.19723635,"ECCENTRICITY":0.0002265,"INCLINATION":87.9246,"RA_OF_ASC_NODE":7.0219,"ARG_OF_PERICENTER":84.4637,"MEAN_ANOMALY":275.6754,"EPHEMERIS_TYPE":0,"CLASSIFICATION_TYPE":"U","NORAD_CAT_ID":54123,"ELEMENT_SET_NO":999,"REV_AT_EPOCH":13562,"BSTAR":-2.0099e-6,"MEAN_MOTION_DOT":1.2e-7,"MEAN_MOTION_DDOT":0},{"OBJECT_NAME":"ONEWEB-0506","OBJECT_ID":"2022-138M","EPOCH":"2025-08-09T10:00:28.681632","MEAN_MOTION":13.19726833,"ECCENTRICITY":0.0001981,"INCLINATION":87.9247,"RA_OF_ASC_NODE":6.9186,"ARG_OF_PERICENTER":91.3761,"MEAN_ANOMALY":268.7598,"EPHEMERIS_TYPE":0,"CLASSIFICATION_TYPE":"U","NORAD_CAT_ID":54124,"ELEMENT_SET_NO":999,"REV_AT_EPOCH":13568,"BSTAR":0.0001898,"MEAN_MOTION_DOT":8.9e-7,"MEAN_MOTION_DDOT":0},{"OBJECT_NAME":"ONEWEB-0507","OBJECT_ID":"2022-138N","EPOCH":"2025-08-09T10:30:02.094336","MEAN_MOTION":13.19725026,"ECCENTRICITY":0.000193,"INCLINATION":87.9239,"RA_OF_ASC_NODE":6.9676,"ARG_OF_PERICENTER":88.2304,"MEAN_ANOMALY":271.905,"EPHEMERIS_TYPE":0,"CLASSIFICATION_TYPE":"U","NORAD_CAT_ID":54125,"ELEMENT_SET_NO":999,"REV_AT_EPOCH":13573,"BSTAR":0.00016428,"MEAN_MOTION_DOT":7.9e-7,"MEAN_MOTION_DDOT":0},{"OBJECT_NAME":"ONEWEB-0508","OBJECT_ID":"2022-138P","EPOCH":"2025-08-09T03:08:47.628384","MEAN_MOTION":13.19726302,"ECCENTRICITY":0.0001977,"INCLINATION":87.9244,"RA_OF_ASC_NODE":7.0117,"ARG_OF_PERICENTER":84.1124,"MEAN_ANOMALY":276.0234,"EPHEMERIS_TYPE":0,"CLASSIFICATION_TYPE":"U","NORAD_CAT_ID":54126,"ELEMENT_SET_NO":999,"REV_AT_EPOCH":13567,"BSTAR":0.00017838,"MEAN_MOTION_DOT":8.4e-7,"MEAN_MOTION_DDOT":0},{"OBJECT_NAME":"ONEWEB-0509","OBJECT_ID":"2022-138Q","EPOCH":"2025-08-09T09:49:05.554848","MEAN_MOTION":13.1972675,"ECCENTRICITY":0.0001913,"INCLINATION":87.9249,"RA_OF_ASC_NODE":6.9177,"ARG_OF_PERICENTER":92.1991,"MEAN_ANOMALY":267.9361,"EPHEMERIS_TYPE":0,"CLASSIFICATION_TYPE":"U","NORAD_CAT_ID":54127,"ELEMENT_SET_NO":999,"REV_AT_EPOCH":13568,"BSTAR":6.3436e-5,"MEAN_MOTION_DOT":3.8e-7,"MEAN_MOTION_DDOT":0},{"OBJECT_NAME":"ONEWEB-0510","OBJECT_ID":"2022-138R","EPOCH":"2025-08-09T14:52:09.774048","MEAN_MOTION":13.20773619,"ECCENTRICITY":0.0001757,"INCLINATION":87.9302,"RA_OF_ASC_NODE":336.5206,"ARG_OF_PERICENTER":116.0612,"MEAN_ANOMALY":244.0702,"EPHEMERIS_TYPE":0,"CLASSIFICATION_TYPE":"U","NORAD_CAT_ID":54128,"ELEMENT_SET_NO":999,"REV_AT_EPOCH":13815,"BSTAR":-0.00010664,"MEAN_MOTION_DOT":-3.0e-7,"MEAN_MOTION_DDOT":0},{"OBJECT_NAME":"ONEWEB-0511","OBJECT_ID":"2022-138S","EPOCH":"2025-08-09T07:55:22.609920","MEAN_MOTION":13.19726662,"ECCENTRICITY":0.0002114,"INCLINATION":87.9246,"RA_OF_ASC_NODE":6.9388,"ARG_OF_PERICENTER":99.6284,"MEAN_ANOMALY":260.5088,"EPHEMERIS_TYPE":0,"CLASSIFICATION_TYPE":"U","NORAD_CAT_ID":54129,"ELEMENT_SET_NO":999,"REV_AT_EPOCH":13570,"BSTAR":6.0635e-5,"MEAN_MOTION_DOT":3.7e-7,"MEAN_MOTION_DDOT":0},{"OBJECT_NAME":"ONEWEB-0512","OBJECT_ID":"2022-138T","EPOCH":"2025-08-09T09:33:10.592928","MEAN_MOTION":13.19726558,"ECCENTRICITY":0.0002186,"INCLINATION":87.9237,"RA_OF_ASC_NODE":6.969,"ARG_OF_PERICENTER":87.8964,"MEAN_ANOMALY":272.2419,"EPHEMERIS_TYPE":0,"CLASSIFICATION_TYPE":"U","NORAD_CAT_ID":54130,"ELEMENT_SET_NO":999,"REV_AT_EPOCH":13568,"BSTAR":-2.4987e-5,"MEAN_MOTION_DOT":3.0e-8,"MEAN_MOTION_DDOT":0},{"OBJECT_NAME":"ONEWEB-0513","OBJECT_ID":"2022-138U","EPOCH":"2025-08-09T11:01:46.053120","MEAN_MOTION":13.2029294,"ECCENTRICITY":0.00024,"INCLINATION":87.9253,"RA_OF_ASC_NODE":6.918,"ARG_OF_PERICENTER":90.7449,"MEAN_ANOMALY":269.3959,"EPHEMERIS_TYPE":0,"CLASSIFICATION_TYPE":"U","NORAD_CAT_ID":54131,"ELEMENT_SET_NO":999,"REV_AT_EPOCH":13558,"BSTAR":0.0074584,"MEAN_MOTION_DOT":3.025e-5,"MEAN_MOTION_DDOT":0}]
